{"type":"Feature","properties":{"MUN":"ELIZABETH CITY","COUNTY":"UNION","MUN_LABEL":"Elizabeth City","MUN_TYPE":"City","NAME":"Elizabeth","GNIS_NAME":"City of Elizabeth"},"geometry":{"type":"Polygon","coordinates":[[[-74.2039395,40.6879298],[-74.2015484,40.6866805],[-74.1982203,40.6868777],[-74.1979188,40.6868956],[-74.1973338,40.6869302],[-74.1971879,40.6869389],[-74.193149,40.687179],[-74.1920975,40.6872415],[-74.1698885,40.6885598],[-74.1692733,40.6886251],[-74.1690078,40.6887904],[-74.1690051,40.6887921],[-74.1685324,40.6894036],[-74.1685309,40.6894056],[-74.1676346,40.6899708],[-74.1664552,40.6901567],[-74.1650514,40.6901696],[-74.1631023,40.6897681],[-74.1623909,40.6896215],[-74.1619451,40.6894613],[-74.1617876,40.6894048],[-74.1610258,40.6889194],[-74.1608346,40.6887101],[-74.1606297,40.6884859],[-74.1606083,40.6884483],[-74.1601128,40.6875792],[-74.160093,40.6875444],[-74.1596703,40.6869805],[-74.159428,40.6867316],[-74.15938,40.6866822],[-74.1590609,40.6864334],[-74.1587201,40.686216],[-74.1583423,40.6860314],[-74.1582811,40.6860223],[-74.1578622,40.6859604],[-74.1568686,40.6860647],[-74.1559658,40.686119],[-74.1553239,40.6861241],[-74.1545613,40.6860767],[-74.1538486,40.6859222],[-74.1526568,40.6852324],[-74.151912,40.684605],[-74.1510886,40.6837421],[-74.1507719,40.6834484],[-74.1504347,40.6831555],[-74.1489857,40.682244],[-74.1412262,40.6782103],[-74.1391391,40.6771252],[-74.1319555,40.6737966],[-74.1319583,40.6737923],[-74.1325066,40.6729317],[-74.1338708,40.670968],[-74.1405732,40.6613178],[-74.1427212,40.6589433],[-74.1460562,40.6560222],[-74.1472598,40.6551243],[-74.1487323,40.6542576],[-74.152019,40.6527866],[-74.1551911,40.6513152],[-74.1580901,40.6497371],[-74.161857,40.64689],[-74.163014,40.6458977],[-74.1801474,40.647769],[-74.1801601,40.6477681],[-74.1802167,40.6477639],[-74.1803148,40.6477648],[-74.1806496,40.6477484],[-74.1808501,40.6477285],[-74.1812996,40.6476931],[-74.1820951,40.6476346],[-74.1823584,40.6476037],[-74.1824507,40.6476004],[-74.1825037,40.6476111],[-74.1825384,40.6476077],[-74.1825592,40.6475955],[-74.1825731,40.6475779],[-74.1825816,40.6475386],[-74.1825871,40.6475141],[-74.1826034,40.6474815],[-74.1827082,40.6473322],[-74.1827302,40.6473123],[-74.1827638,40.6472901],[-74.1828447,40.6472622],[-74.1829094,40.6472483],[-74.1829949,40.6472222],[-74.1830758,40.6472031],[-74.1831936,40.6471876],[-74.1833148,40.64718],[-74.183571,40.6471737],[-74.1837454,40.6471634],[-74.1839208,40.6471474],[-74.1840503,40.6471143],[-74.1840628,40.6471107],[-74.184219,40.6470656],[-74.1843206,40.64705],[-74.1844222,40.647052],[-74.184549,40.6470665],[-74.1853314,40.646855],[-74.1854408,40.6467935],[-74.1854934,40.646764],[-74.1854267,40.6467023],[-74.1855581,40.6466186],[-74.1859719,40.6463548],[-74.1861081,40.6462732],[-74.1863399,40.6461343],[-74.1864881,40.6460374],[-74.187126,40.6456204],[-74.1871743,40.6456557],[-74.1872368,40.6456154],[-74.1872695,40.6456476],[-74.1875016,40.6454777],[-74.1881614,40.6450187],[-74.1882921,40.6450202],[-74.1885822,40.6448249],[-74.188584,40.6447804],[-74.1892861,40.6442901],[-74.1904092,40.6436706],[-74.1905135,40.6436055],[-74.1908173,40.6434159],[-74.1912923,40.6431065],[-74.1917078,40.6428781],[-74.1917324,40.6428539],[-74.1917757,40.6428094],[-74.1918039,40.6427804],[-74.1918218,40.6427628],[-74.1918267,40.6427543],[-74.1918235,40.6427457],[-74.1918151,40.6427388],[-74.1917769,40.642717],[-74.1917729,40.6427151],[-74.1917723,40.6427115],[-74.1917737,40.6427085],[-74.1918247,40.6426718],[-74.1931371,40.6416754],[-74.1932251,40.6416086],[-74.1932658,40.6415777],[-74.1935524,40.6413651],[-74.1937191,40.6412195],[-74.1938101,40.6412795],[-74.194294,40.6409216],[-74.1941998,40.6408545],[-74.1942077,40.6408484],[-74.1947737,40.6404197],[-74.1947897,40.6404161],[-74.1948342,40.6404092],[-74.1948507,40.6403996],[-74.1949483,40.6403108],[-74.1951952,40.6400863],[-74.1951479,40.64005],[-74.1952122,40.6399916],[-74.195825,40.6394408],[-74.1963143,40.6389917],[-74.1963201,40.6389139],[-74.1963614,40.6388733],[-74.1964062,40.6388293],[-74.1964572,40.63886],[-74.1966092,40.6387223],[-74.196809,40.6385412],[-74.1969542,40.6383966],[-74.1969767,40.6383741],[-74.1970043,40.6383297],[-74.197059,40.6382365],[-74.1971002,40.6381663],[-74.1971328,40.6381107],[-74.1971588,40.6380663],[-74.1971847,40.6380222],[-74.1972425,40.6379237],[-74.1973706,40.6376928],[-74.197435,40.6375763],[-74.1977087,40.6370816],[-74.1978175,40.6369035],[-74.1978509,40.6368489],[-74.1980279,40.6364952],[-74.1980583,40.6364591],[-74.1981624,40.6363356],[-74.2000489,40.6373508],[-74.2002845,40.6371465],[-74.1984508,40.6358595],[-74.1986665,40.6354475],[-74.1986875,40.635423],[-74.1987506,40.6353455],[-74.1987576,40.6353409],[-74.1987651,40.6353421],[-74.1988012,40.6353727],[-74.1988682,40.6353249],[-74.1988492,40.6352973],[-74.198966,40.6352118],[-74.1989279,40.6351803],[-74.1989166,40.635171],[-74.1989492,40.6351477],[-74.1994866,40.6347887],[-74.1998036,40.6345911],[-74.2002345,40.6343374],[-74.2014512,40.6339721],[-74.2021537,40.6344525],[-74.2159193,40.6438632],[-74.2161411,40.6436773],[-74.2165569,40.6439579],[-74.2169611,40.6442306],[-74.2176249,40.6446784],[-74.2181166,40.6450102],[-74.2184464,40.6452394],[-74.219252,40.6457993],[-74.2193083,40.6458474],[-74.2194141,40.6459378],[-74.2201679,40.6464569],[-74.220456,40.6466552],[-74.2211523,40.6471403],[-74.2217537,40.6475591],[-74.2233571,40.6486686],[-74.2234266,40.6487169],[-74.2287728,40.652367],[-74.2296694,40.652988],[-74.2301304,40.6533074],[-74.2303588,40.6534644],[-74.2303803,40.6534792],[-74.2310665,40.653951],[-74.2312224,40.6540581],[-74.2317772,40.6544511],[-74.231965,40.6545841],[-74.2325306,40.6549461],[-74.2326396,40.6548843],[-74.2328565,40.6547577],[-74.2332045,40.6545525],[-74.2333737,40.6544513],[-74.2362512,40.6578072],[-74.2363377,40.6578652],[-74.2446697,40.6634474],[-74.2467235,40.6631719],[-74.2469042,40.6640379],[-74.2470468,40.6646531],[-74.2471329,40.6650583],[-74.2471334,40.66506],[-74.2471584,40.6651449],[-74.2471638,40.6651632],[-74.2472196,40.6652777],[-74.2474698,40.6656789],[-74.2478355,40.6662656],[-74.2478597,40.6663048],[-74.248047,40.6666092],[-74.2481054,40.6667065],[-74.2481901,40.6668478],[-74.2482648,40.6669528],[-74.2483834,40.6670483],[-74.2485259,40.6671576],[-74.2485331,40.6671631],[-74.2487203,40.6673207],[-74.2488888,40.6674498],[-74.2490261,40.6675501],[-74.2490746,40.6675729],[-74.2493322,40.6676937],[-74.2501756,40.668134],[-74.2506213,40.6683527],[-74.2508003,40.6684404],[-74.2509907,40.6685357],[-74.2513576,40.6687192],[-74.2517186,40.6688999],[-74.2521248,40.6691024],[-74.2529806,40.669529],[-74.2530244,40.6695508],[-74.2539864,40.6700437],[-74.2542207,40.6701708],[-74.2532616,40.6705739],[-74.253151,40.6706193],[-74.2520712,40.6710633],[-74.2513245,40.6713703],[-74.2509958,40.6715052],[-74.25053,40.6716963],[-74.2500317,40.6719007],[-74.2499956,40.6719155],[-74.2499251,40.6719425],[-74.2495973,40.6720682],[-74.2490929,40.6722614],[-74.2482373,40.6725737],[-74.2481841,40.6725931],[-74.2465795,40.6731805],[-74.246404,40.6732421],[-74.2463038,40.6732514],[-74.2462528,40.6732505],[-74.2459909,40.6732459],[-74.245519,40.6732132],[-74.2453526,40.6732016],[-74.2444892,40.6731187],[-74.2444668,40.6731165],[-74.2437571,40.6730456],[-74.2433995,40.6729922],[-74.2431003,40.6729393],[-74.2425295,40.6727617],[-74.2425092,40.6727554],[-74.2424868,40.6727484],[-74.2421438,40.6726417],[-74.2417155,40.6725081],[-74.2413436,40.6723921],[-74.2413198,40.672385],[-74.2405466,40.6732374],[-74.239325,40.6726419],[-74.2389805,40.6732544],[-74.2383763,40.6730552],[-74.2371808,40.6751317],[-74.2366877,40.6760315],[-74.2365601,40.6759664],[-74.2355724,40.6770419],[-74.2348243,40.676644],[-74.2357309,40.6754718],[-74.2339385,40.6744363],[-74.2341889,40.6741737],[-74.2310185,40.671679],[-74.2310125,40.6717482],[-74.230994,40.6719604],[-74.2309705,40.6720887],[-74.2309236,40.6723451],[-74.2308926,40.6724296],[-74.2308615,40.6725257],[-74.2307804,40.672718],[-74.2307302,40.672817],[-74.2306531,40.6729451],[-74.2305684,40.6730615],[-74.2304837,40.6731721],[-74.2303913,40.6732769],[-74.2301645,40.6735164],[-74.229903,40.673784],[-74.2288735,40.6734426],[-74.2281057,40.6743707],[-74.2268855,40.6740825],[-74.2255526,40.6748671],[-74.2258758,40.6751046],[-74.2259855,40.6751875],[-74.2264404,40.6755315],[-74.22609,40.6757553],[-74.2259814,40.6756817],[-74.225721,40.6758501],[-74.2251861,40.6752537],[-74.2250577,40.6752568],[-74.2249263,40.6752517],[-74.2248136,40.6752419],[-74.224676,40.6752273],[-74.224457,40.6752029],[-74.2241692,40.6751689],[-74.2238564,40.67513],[-74.2232306,40.6750761],[-74.2229541,40.6750568],[-74.222369,40.6750161],[-74.2221764,40.6750027],[-74.2221733,40.6750025],[-74.2221823,40.6750088],[-74.2222236,40.6750363],[-74.2222662,40.6750625],[-74.2223102,40.6750875],[-74.2223554,40.6751112],[-74.2224017,40.6751336],[-74.2223308,40.6752393],[-74.2178451,40.6819335],[-74.2147049,40.6866188],[-74.2147291,40.6868965],[-74.2147772,40.6873589],[-74.2147798,40.6874214],[-74.214794,40.6877628],[-74.214805,40.6881083],[-74.2148058,40.688117],[-74.2148526,40.6886152],[-74.2148529,40.6886183],[-74.2148771,40.6888724],[-74.2148802,40.6889052],[-74.2123482,40.690673],[-74.2092491,40.6907169],[-74.2055202,40.6887546],[-74.2052651,40.6886226],[-74.2048109,40.6883846],[-74.2039395,40.6879298]]]}}
